#aV2010  3  4  0  0   .00000000      96 DD+AD WGS84 FIT  NGA
## 1573 345600.00000000   900.00000000 55259  .0000000000000
+   31     1  2  3  4  5  6  7  8  9 10 11 12 13 14 15 16 17
+         18 19 20 21 22 23 24 26 27 28 29 30 31 32  0  0  0
+          0  0  0  0  0  0  0  0  0  0  0  0  0  0  0  0  0
+          0  0  0  0  0  0  0  0  0  0  0  0  0  0  0  0  0
+          0  0  0  0  0  0  0  0  0  0  0  0  0  0  0  0  0
++         0  0  0  0  0  0  0  0  0  0  0  0  0  0  0  0  0
++         0  0  0  0  0  0  0  0  0  0  0  0  0  0  0  0  0
++         0  0  0  0  0  0  0  0  0  0  0  0  0  0  0  0  0
++         0  0  0  0  0  0  0  0  0  0  0  0  0  0  0  0  0
++         0  0  0  0  0  0  0  0  0  0  0  0  0  0  0  0  0
%c cc cc ccc ccc cccc cccc cccc cccc ccccc ccccc ccccc ccccc
%c cc cc ccc ccc cccc cccc cccc cccc ccccc ccccc ccccc ccccc
%f  0.0000000  0.000000000  0.00000000000  0.000000000000000
%f  0.0000000  0.000000000  0.00000000000  0.000000000000000
%i    0    0    0    0      0      0      0      0         0
%i    0    0    0    0      0      0      0      0         0
/*      NGA, ST. LOUIS,MO.                                  
/*   EPHEMERIS COMPUTED FROM  3 DAYS OF DATA                
/* CCCCCCCCCCCCCCCCCCCCCCCCCCCCCCCCCCCCCCCCCCCCCCCCCCCCCCCCC
/* CCCCCCCCCCCCCCCCCCCCCCCCCCCCCCCCCCCCCCCCCCCCCCCCCCCCCCCCC
*  2010  3  4 18 30   .00000000                                                 
P  1 -10711.210000 -14950.362345 -19335.665913    -95.071760                    
V  1  24194.727086   1971.291564 -14878.772700      -.039659                    
P  2  20046.664766  -8667.208228 -14851.552868    232.895823                    
V  2  -9178.185815  16874.316503 -22755.003435       .039506                    
P  3 -16181.509765   2669.416285  20585.380126    523.693411                    
V  3 -12538.403812 -23959.501070  -6290.944351       .050991                    
P  4  15443.924573   5340.873618 -21155.428967     28.945870                    
V  4 -15888.686480  21216.198834  -5930.264625       .088895                    
P  5  24925.170467  -2922.826717   8809.054265     -5.072164                    
V  5  10757.059058   4020.733408 -28945.707450       .017158                    
P  6 -17303.544374  -1615.054114  20296.327821    694.703337                    
V  6  -9781.024451 -23508.659585 -10176.979065      -.065238                    
P  7  -2277.995494  20902.646847  16125.212013      2.081345                    
V  7 -14016.423467  15105.446925 -21702.560913      -.004737                    
P  8   8200.169530  12366.420257  21958.139426      3.849261                    
V  8 -18917.496738  20515.826935  -4991.786712       .002900                    
P  9  15755.065087 -21330.819716    287.575063    109.572765                    
V  9   1151.922497   2281.495283  32196.768238       .022752                    
P 10  26514.299690   2911.729566   1841.297709    -37.018454                    
V 10   2072.700369   3102.014567 -31264.248866      -.009350                    
P 11  -9995.282137  24375.202904  -1294.964872    -48.688894                    
V 11  -5445.836022   -959.543388  30241.442372      -.021957                    
P 12  11422.288104 -12474.076010 -20385.398477   -142.795389                    
V 12  25612.865346   4717.769015  11571.613057       .046621                    
P 13   4459.280571  25531.036756  -5903.248729    306.223796                    
V 13  -3917.573851  -6390.383199 -31316.258443      -.001676                    
P 14 -14551.458544 -19377.520088 -10878.720646     18.338244                    
V 14  -3112.978235 -13691.085955  28081.091498       .041727                    
P 15  11239.059752 -11644.665082  21061.421164   -301.404028                    
V 15  11224.501531  24282.231150   7553.902784       .035528                    
P 16 -26454.245427  -2283.266731   2911.774797    -47.636445                    
V 16  -3196.983840  -2800.055360 -31519.615486      -.039659                    
P 17  15487.640661  18545.884591 -11170.591827    134.447198                    
V 17   2960.270030  14130.661063  27130.346579       .029737                    
P 18  -8844.194644 -16008.315207  19636.714134     52.932507                    
V 18  24237.858136   2658.290799  12885.182258       .025755                    
P 19 -11296.138046  12265.576799  20643.531824    -19.346712                    
V 19  -9019.885288 -24633.616699  10006.751189      -.023894                    
P 20  -7490.685003  14671.111859 -20963.489421     60.161656                    
V 20 -26170.438054  -3574.034893   6952.757467      -.007104                    
P 21  -2832.165636 -18699.952473  18710.696850    -44.503500                    
V 21  16226.842359 -17042.158497 -15454.150781      -.025144                    
P 22 -20176.325301 -12463.939403  12198.091105    177.744688                    
V 22  15534.158955   -327.421920  25613.349821      -.008756                    
P 23  -2299.946927  21758.055866 -14868.030871    378.316070                    
V 23  -8956.778891 -16811.795518 -23556.921614      -.010430                    
P 24   3317.477453 -21260.880693  15838.393740    267.596863                    
V 24  14441.909036 -13781.597295 -21396.755917       .033320                    
P 26  -7015.142595 -25203.799254   2132.565531    -24.484361                    
V 26   3232.721785   2499.695557  32585.017519      -.038816                    
P 27  17381.433974 -19582.134800   4714.160153    131.212235                    
V 27  -1053.391342   5505.325940  31470.545985       .032931                    
P 28  18218.977200  13341.412446  14690.006861    -21.108268                    
V 28 -17719.968219  -1423.166970  23756.713633       .006620                    
P 29  -3439.795008 -25089.991768  -7979.212282    102.566121                    
V 29   6043.457539   8679.947247 -29518.214575       .028713                    
P 30   -603.757134 -15606.046472 -21876.493005    221.605853                    
V 30  26780.121137   2274.356080  -2349.781804       .032528                    
P 31 -15966.379280  -2484.452651 -20898.499488    -48.910965                    
V 31  16015.816086 -21686.542707  -9394.951682       .017022                    
P 32 -17495.238088   8638.774533 -17514.070241     81.894831                    
V 32 -22084.159951  -6959.603775  18581.935074      -.085435                    
EOF
